TIANMU-1 21             
1 58662U 23208C   26169.87725962  .00007593  00000+0  22522-3 0  9991
2 58662  97.4511 289.5104 0005849 316.5340  43.5441 15.35101396137829
TIANMU-1 22             
1 58663U 23208D   26169.83734490  .00005785  00000+0  19528-3 0  9997
2 58663  97.4506 286.0801 0003035 357.6931   2.4295 15.31076778137582
TIANMU-1 15             
1 58700U 24004A   26169.86790426  .00004540  00000+0  17389-3 0  9999
2 58700  97.4669 356.0581 0006525 356.5144   3.6049 15.27037750136039
TIANMU-1 16             
1 58701U 24004B   26169.85744389  .00004573  00000+0  17661-3 0  9995
2 58701  97.4616 355.2826 0005655   2.1542 357.9720 15.26762662136031
TIANMU-1 17             
1 58702U 24004C   26169.84289831  .00004483  00000+0  17318-3 0  9990
2 58702  97.4644 355.7537 0005360   8.7555 351.3776 15.26761642136021
TIANMU-1 18             
1 58703U 24004D   26169.81900992  .00004242  00000+0  16282-3 0  9998
2 58703  97.4662 355.9863 0003868  10.1473 349.9843 15.27018617136029
INSAT-3DS               
1 58990U 24033A   26169.83987610 -.00000162  00000+0  00000+0 0  9997
2 58990   0.0454 107.0891 0001090 328.6912 215.7452  1.00271110 47081
METEOR-M2 4             
1 59051U 24039A   26169.87164233  .00000003  00000+0  20866-4 0  9994
2 59051  98.7017 129.1485 0007381 156.3184 203.8335 14.22429672119500
GOES 19                 
1 60133U 24119A   26169.59478904 -.00000254  00000+0  00000+0 0  9990
2 60133   0.0409 169.8991 0000353   4.4442 231.4208  1.00270829  6971
MTG-S1                  
1 64723U 25143A   26168.96740449 -.00000037  00000+0  00000+0 0  9992
2 64723   0.6022 339.1600 0000787  17.8158 254.0253  1.00270537  3423
METOP-SGA1              
1 65159U 25172A   26167.15332899  .00000049  00000+0  42000-4 0  9997
2 65159  98.6644 226.8998 0000902  93.8213 266.3067 14.21509720 43644
FENGYUN 3H              
1 65815U 25219A   26169.80271226  .00000039  00000+0  38694-4 0  9991
2 65815  98.6768 110.5405 0001595  75.8667 284.2687 14.19920662 37610
