OBJECT_NAME,OBJECT_ID,EPOCH,MEAN_MOTION,ECCENTRICITY,INCLINATION,RA_OF_ASC_NODE,ARG_OF_PERICENTER,MEAN_ANOMALY,EPHEMERIS_TYPE,CLASSIFICATION_TYPE,NORAD_CAT_ID,ELEMENT_SET_NO,REV_AT_EPOCH,BSTAR,MEAN_MOTION_DOT,MEAN_MOTION_DDOT
TIANMU-1 21,2023-208C,2026-06-18T21:03:15.231168,15.35101396,.0005849,97.4511,289.5104,316.5340,43.5441,0,U,58662,999,13782,.22522E-3,.7593E-4,0
TIANMU-1 22,2023-208D,2026-06-18T20:05:46.599360,15.31076778,.0003035,97.4506,286.0801,357.6931,2.4295,0,U,58663,999,13758,.19528E-3,.5785E-4,0
TIANMU-1 15,2024-004A,2026-06-18T20:49:46.928064,15.27037750,.0006525,97.4669,356.0581,356.5144,3.6049,0,U,58700,999,13603,.17389E-3,.454E-4,0
TIANMU-1 16,2024-004B,2026-06-18T20:34:43.152096,15.26762662,.0005655,97.4616,355.2826,2.1542,357.9720,0,U,58701,999,13603,.17661E-3,.4573E-4,0
TIANMU-1 17,2024-004C,2026-06-18T20:13:46.413984,15.26761642,.000536,97.4644,355.7537,8.7555,351.3776,0,U,58702,999,13602,.17318E-3,.4483E-4,0
TIANMU-1 18,2024-004D,2026-06-18T19:39:22.457088,15.27018617,.0003868,97.4662,355.9863,10.1473,349.9843,0,U,58703,999,13602,.16282E-3,.4242E-4,0
INSAT-3DS,2024-033A,2026-06-18T20:09:25.295040,1.00271110,.000109,0.0454,107.0891,328.6912,215.7452,0,U,58990,999,4708,0,-.162E-5,0
METEOR-M2 4,2024-039A,2026-06-18T20:55:09.897312,14.22429672,.0007381,98.7017,129.1485,156.3184,203.8335,0,U,59051,999,11950,.20866E-4,.3E-7,0
GOES 19,2024-119A,2026-06-18T14:16:29.773056,1.00270829,.0000353,0.0409,169.8991,4.4442,231.4208,0,U,60133,999,697,0,-.254E-5,0
MTG-S1,2025-143A,2026-06-17T23:13:03.747936,1.00270537,.00007875,0.6022,339.1600,17.8158,254.0253,0,U,64723,999,342,0,-.37E-6,0
METOP-SGA1,2025-172A,2026-06-16T03:40:47.624736,14.21509720,.0000902,98.6644,226.8998,93.8213,266.3067,0,U,65159,999,4364,.41999845E-4,.49E-6,0
FENGYUN 3H,2025-219A,2026-06-18T19:15:54.339264,14.19920662,.0001595,98.6768,110.5405,75.8667,284.2687,0,U,65815,999,3761,.38694E-4,.39E-6,0
